{
  "norad_id": 66998,
  "name": "2025-292F",
  "history": [
    {
      "epoch": "2026-05-03T16:30:41.294016Z",
      "apogee_km": 557.9389854860119,
      "perigee_km": 536.3113916710818,
      "latitude_deg": 4.928060257559259e-05,
      "longitude_deg": 90.73735634102898,
      "height_km": 559.7415791312907,
      "semi_major_axis_km": 6925.262188578547,
      "eccentricity": 0.0015615,
      "inclination_deg": 97.6358,
      "raan_deg": 199.9975,
      "arg_perigee_deg": 152.176,
      "mean_anomaly_deg": 208.0306,
      "mean_motion_rev_day": 15.06428181
    },
    {
      "epoch": "2026-05-04T18:01:05.488608Z",
      "apogee_km": 557.9851580456179,
      "perigee_km": 536.1942397149214,
      "latitude_deg": -7.149039156381011e-05,
      "longitude_deg": 68.14263422466921,
      "height_km": 559.432305017046,
      "semi_major_axis_km": 6925.226698880269,
      "eccentricity": 0.0015733,
      "inclination_deg": 97.6359,
      "raan_deg": 201.0511,
      "arg_perigee_deg": 148.5228,
      "mean_anomaly_deg": 211.6943,
      "mean_motion_rev_day": 15.06439761
    },
    {
      "epoch": "2026-05-05T17:55:49.891872Z",
      "apogee_km": 558.0187030339457,
      "perigee_km": 536.0797131267464,
      "latitude_deg": -4.454493019548499e-05,
      "longitude_deg": 69.4631685886497,
      "height_km": 559.0914389260704,
      "semi_major_axis_km": 6925.186208080346,
      "eccentricity": 0.001584,
      "inclination_deg": 97.6358,
      "raan_deg": 202.0387,
      "arg_perigee_deg": 145.077,
      "mean_anomaly_deg": 215.1499,
      "mean_motion_rev_day": 15.06452973
    }
  ]
}